HULIANWANG DIGUI-144    
1 67442U 26007H   26034.62106138 -.00000007  00000+0  12918-3 0  9991
2 67442  50.0058 211.0945 0000770 219.8051 140.2786 13.80180616  2920
HULIANWANG DIGUI-145    
1 67443U 26007J   26034.54542121  .00000004  00000+0  13925-3 0  9994
2 67443  49.9733 211.3496 0002953  95.4092 264.7139 13.80479504  2910
CZ-8A R/B               
1 67444U 26007K   26035.74543785 -.00000155  00000+0  32710-6 0  9999
2 67444  50.0084 203.0133 0092203 158.8697 201.6058 14.13551103  3128
STARLINK-36542          
1 67445U 26008A   26035.83334490 -.02053939  00000+0 -26486-1 0  9991
2 67445  43.0004  33.0836 0001246 252.4556   7.2597 15.61678943  4514
STARLINK-36539          
1 67446U 26008B   26035.83334490 -.02068578  00000+0 -24749-1 0  9997
2 67446  43.0000  33.0324 0001262 256.1404  24.4671 15.63597209  4515
STARLINK-36440          
1 67447U 26008C   26035.39396356 -.00618888  00000+0 -44540-2 0  9993
2 67447  42.9995  35.5635 0000731 302.0276  58.0522 15.74395349  4451
STARLINK-36423          
1 67448U 26008D   26035.83334490 -.02090710  00000+0 -29361-1 0  9997
2 67448  43.0005  33.1471 0001136 257.0974 336.6816 15.58983763  4515
STARLINK-36519          
1 67449U 26008E   26035.83334490 -.02075742  00000+0 -19717-1 0  9990
2 67449  43.0003  32.9198 0001392 257.1621  68.1782 15.69250191  4514
STARLINK-36525          
1 67450U 26008F   26035.83334490 -.02057454  00000+0 -26754-1 0  9991
2 67450  43.0003  33.0643 0001283 255.1297  11.9362 15.61472035  4514
STARLINK-36511          
1 67451U 26008G   26035.83334490 -.02097755  00000+0 -29172-1 0  9997
2 67451  43.0002  33.1240 0001232 250.5839 352.2904 15.59249538  4513
STARLINK-36524          
1 67452U 26008H   26035.83334490 -.02055664  00000+0 -25891-1 0  9995
2 67452  43.0001  33.0336 0001224 253.8951  25.5292 15.62280695  4513
STARLINK-36518          
1 67453U 26008J   26035.83334490 -.02066437  00000+0 -23336-1 0  9998
2 67453  42.9997  32.6019 0000913 257.8712 191.2343 15.65034893  4532
