CCSDS_OMM_VERS = 2.0
CREATION_DATE  = 
ORIGINATOR     = 

OBJECT_NAME    = HULIANWANG DIGUI-144
OBJECT_ID      = 2026-007H
CENTER_NAME    = EARTH
REF_FRAME      = TEME
TIME_SYSTEM    = UTC
MEAN_ELEMENT_THEORY = SGP/SGP4

EPOCH          = 2026-02-03T14:54:19.703232
MEAN_MOTION    = 13.80180616
ECCENTRICITY   = .000077
INCLINATION    = 50.0058
RA_OF_ASC_NODE = 211.0945
ARG_OF_PERICENTER = 219.8051
MEAN_ANOMALY   = 140.2786

EPHEMERIS_TYPE = 0
CLASSIFICATION_TYPE = U
NORAD_CAT_ID   = 67442
ELEMENT_SET_NO = 999
REV_AT_EPOCH   = 292
BSTAR          = .12918E-3
MEAN_MOTION_DOT = -.7E-7
MEAN_MOTION_DDOT = 0

CCSDS_OMM_VERS = 2.0
CREATION_DATE  = 
ORIGINATOR     = 

OBJECT_NAME    = HULIANWANG DIGUI-145
OBJECT_ID      = 2026-007J
CENTER_NAME    = EARTH
REF_FRAME      = TEME
TIME_SYSTEM    = UTC
MEAN_ELEMENT_THEORY = SGP/SGP4

EPOCH          = 2026-02-03T13:05:24.392544
MEAN_MOTION    = 13.80479504
ECCENTRICITY   = .00029534
INCLINATION    = 49.9733
RA_OF_ASC_NODE = 211.3496
ARG_OF_PERICENTER = 95.4092
MEAN_ANOMALY   = 264.7139

EPHEMERIS_TYPE = 0
CLASSIFICATION_TYPE = U
NORAD_CAT_ID   = 67443
ELEMENT_SET_NO = 999
REV_AT_EPOCH   = 291
BSTAR          = .13925179E-3
MEAN_MOTION_DOT = .4E-7
MEAN_MOTION_DDOT = 0

CCSDS_OMM_VERS = 2.0
CREATION_DATE  = 
ORIGINATOR     = 

OBJECT_NAME    = CZ-8A R/B
OBJECT_ID      = 2026-007K
CENTER_NAME    = EARTH
REF_FRAME      = TEME
TIME_SYSTEM    = UTC
MEAN_ELEMENT_THEORY = SGP/SGP4

EPOCH          = 2026-02-04T17:53:25.830240
MEAN_MOTION    = 14.13551103
ECCENTRICITY   = .0092203
INCLINATION    = 50.0084
RA_OF_ASC_NODE = 203.0133
ARG_OF_PERICENTER = 158.8697
MEAN_ANOMALY   = 201.6058

EPHEMERIS_TYPE = 0
CLASSIFICATION_TYPE = U
NORAD_CAT_ID   = 67444
ELEMENT_SET_NO = 999
REV_AT_EPOCH   = 312
BSTAR          = .3271E-6
MEAN_MOTION_DOT = -.155E-5
MEAN_MOTION_DDOT = 0

CCSDS_OMM_VERS = 2.0
CREATION_DATE  = 
ORIGINATOR     = 

OBJECT_NAME    = STARLINK-36542
OBJECT_ID      = 2026-008A
CENTER_NAME    = EARTH
REF_FRAME      = TEME
TIME_SYSTEM    = UTC
MEAN_ELEMENT_THEORY = SGP/SGP4

EPOCH          = 2026-02-04T20:00:00.999360
MEAN_MOTION    = 15.61678943
ECCENTRICITY   = .0001246
INCLINATION    = 43.0004
RA_OF_ASC_NODE = 33.0836
ARG_OF_PERICENTER = 252.4556
MEAN_ANOMALY   = 7.2597

EPHEMERIS_TYPE = 0
CLASSIFICATION_TYPE = U
NORAD_CAT_ID   = 67445
ELEMENT_SET_NO = 999
REV_AT_EPOCH   = 451
BSTAR          = -.26486E-1
MEAN_MOTION_DOT = -.2053939E-1
MEAN_MOTION_DDOT = 0

CCSDS_OMM_VERS = 2.0
CREATION_DATE  = 
ORIGINATOR     = 

OBJECT_NAME    = STARLINK-36539
OBJECT_ID      = 2026-008B
CENTER_NAME    = EARTH
REF_FRAME      = TEME
TIME_SYSTEM    = UTC
MEAN_ELEMENT_THEORY = SGP/SGP4

EPOCH          = 2026-02-04T20:00:00.999360
MEAN_MOTION    = 15.63597209
ECCENTRICITY   = .0001262
INCLINATION    = 43.0000
RA_OF_ASC_NODE = 33.0324
ARG_OF_PERICENTER = 256.1404
MEAN_ANOMALY   = 24.4671

EPHEMERIS_TYPE = 0
CLASSIFICATION_TYPE = U
NORAD_CAT_ID   = 67446
ELEMENT_SET_NO = 999
REV_AT_EPOCH   = 451
BSTAR          = -.24749E-1
MEAN_MOTION_DOT = -.2068578E-1
MEAN_MOTION_DDOT = 0

CCSDS_OMM_VERS = 2.0
CREATION_DATE  = 
ORIGINATOR     = 

OBJECT_NAME    = STARLINK-36440
OBJECT_ID      = 2026-008C
CENTER_NAME    = EARTH
REF_FRAME      = TEME
TIME_SYSTEM    = UTC
MEAN_ELEMENT_THEORY = SGP/SGP4

EPOCH          = 2026-02-04T09:27:18.451584
MEAN_MOTION    = 15.74395349
ECCENTRICITY   = .0000731
INCLINATION    = 42.9995
RA_OF_ASC_NODE = 35.5635
ARG_OF_PERICENTER = 302.0276
MEAN_ANOMALY   = 58.0522

EPHEMERIS_TYPE = 0
CLASSIFICATION_TYPE = U
NORAD_CAT_ID   = 67447
ELEMENT_SET_NO = 999
REV_AT_EPOCH   = 445
BSTAR          = -.4454E-2
MEAN_MOTION_DOT = -.618888E-2
MEAN_MOTION_DDOT = 0

CCSDS_OMM_VERS = 2.0
CREATION_DATE  = 
ORIGINATOR     = 

OBJECT_NAME    = STARLINK-36423
OBJECT_ID      = 2026-008D
CENTER_NAME    = EARTH
REF_FRAME      = TEME
TIME_SYSTEM    = UTC
MEAN_ELEMENT_THEORY = SGP/SGP4

EPOCH          = 2026-02-04T20:00:00.999360
MEAN_MOTION    = 15.58983763
ECCENTRICITY   = .0001136
INCLINATION    = 43.0005
RA_OF_ASC_NODE = 33.1471
ARG_OF_PERICENTER = 257.0974
MEAN_ANOMALY   = 336.6816

EPHEMERIS_TYPE = 0
CLASSIFICATION_TYPE = U
NORAD_CAT_ID   = 67448
ELEMENT_SET_NO = 999
REV_AT_EPOCH   = 451
BSTAR          = -.29361E-1
MEAN_MOTION_DOT = -.209071E-1
MEAN_MOTION_DDOT = 0

CCSDS_OMM_VERS = 2.0
CREATION_DATE  = 
ORIGINATOR     = 

OBJECT_NAME    = STARLINK-36519
OBJECT_ID      = 2026-008E
CENTER_NAME    = EARTH
REF_FRAME      = TEME
TIME_SYSTEM    = UTC
MEAN_ELEMENT_THEORY = SGP/SGP4

EPOCH          = 2026-02-04T20:00:00.999360
MEAN_MOTION    = 15.69250191
ECCENTRICITY   = .0001392
INCLINATION    = 43.0003
RA_OF_ASC_NODE = 32.9198
ARG_OF_PERICENTER = 257.1621
MEAN_ANOMALY   = 68.1782

EPHEMERIS_TYPE = 0
CLASSIFICATION_TYPE = U
NORAD_CAT_ID   = 67449
ELEMENT_SET_NO = 999
REV_AT_EPOCH   = 451
BSTAR          = -.19717E-1
MEAN_MOTION_DOT = -.2075742E-1
MEAN_MOTION_DDOT = 0

CCSDS_OMM_VERS = 2.0
CREATION_DATE  = 
ORIGINATOR     = 

OBJECT_NAME    = STARLINK-36525
OBJECT_ID      = 2026-008F
CENTER_NAME    = EARTH
REF_FRAME      = TEME
TIME_SYSTEM    = UTC
MEAN_ELEMENT_THEORY = SGP/SGP4

EPOCH          = 2026-02-04T20:00:00.999360
MEAN_MOTION    = 15.61472035
ECCENTRICITY   = .0001283
INCLINATION    = 43.0003
RA_OF_ASC_NODE = 33.0643
ARG_OF_PERICENTER = 255.1297
MEAN_ANOMALY   = 11.9362

EPHEMERIS_TYPE = 0
CLASSIFICATION_TYPE = U
NORAD_CAT_ID   = 67450
ELEMENT_SET_NO = 999
REV_AT_EPOCH   = 451
BSTAR          = -.26754E-1
MEAN_MOTION_DOT = -.2057454E-1
MEAN_MOTION_DDOT = 0

CCSDS_OMM_VERS = 2.0
CREATION_DATE  = 
ORIGINATOR     = 

OBJECT_NAME    = STARLINK-36511
OBJECT_ID      = 2026-008G
CENTER_NAME    = EARTH
REF_FRAME      = TEME
TIME_SYSTEM    = UTC
MEAN_ELEMENT_THEORY = SGP/SGP4

EPOCH          = 2026-02-04T20:00:00.999360
MEAN_MOTION    = 15.59249538
ECCENTRICITY   = .0001232
INCLINATION    = 43.0002
RA_OF_ASC_NODE = 33.1240
ARG_OF_PERICENTER = 250.5839
MEAN_ANOMALY   = 352.2904

EPHEMERIS_TYPE = 0
CLASSIFICATION_TYPE = U
NORAD_CAT_ID   = 67451
ELEMENT_SET_NO = 999
REV_AT_EPOCH   = 451
BSTAR          = -.29172E-1
MEAN_MOTION_DOT = -.2097755E-1
MEAN_MOTION_DDOT = 0

CCSDS_OMM_VERS = 2.0
CREATION_DATE  = 
ORIGINATOR     = 

OBJECT_NAME    = STARLINK-36524
OBJECT_ID      = 2026-008H
CENTER_NAME    = EARTH
REF_FRAME      = TEME
TIME_SYSTEM    = UTC
MEAN_ELEMENT_THEORY = SGP/SGP4

EPOCH          = 2026-02-04T20:00:00.999360
MEAN_MOTION    = 15.62280695
ECCENTRICITY   = .0001224
INCLINATION    = 43.0001
RA_OF_ASC_NODE = 33.0336
ARG_OF_PERICENTER = 253.8951
MEAN_ANOMALY   = 25.5292

EPHEMERIS_TYPE = 0
CLASSIFICATION_TYPE = U
NORAD_CAT_ID   = 67452
ELEMENT_SET_NO = 999
REV_AT_EPOCH   = 451
BSTAR          = -.25891E-1
MEAN_MOTION_DOT = -.2055664E-1
MEAN_MOTION_DDOT = 0

CCSDS_OMM_VERS = 2.0
CREATION_DATE  = 
ORIGINATOR     = 

OBJECT_NAME    = STARLINK-36518
OBJECT_ID      = 2026-008J
CENTER_NAME    = EARTH
REF_FRAME      = TEME
TIME_SYSTEM    = UTC
MEAN_ELEMENT_THEORY = SGP/SGP4

EPOCH          = 2026-02-04T20:00:00.999360
MEAN_MOTION    = 15.65034893
ECCENTRICITY   = .0000913
INCLINATION    = 42.9997
RA_OF_ASC_NODE = 32.6019
ARG_OF_PERICENTER = 257.8712
MEAN_ANOMALY   = 191.2343

EPHEMERIS_TYPE = 0
CLASSIFICATION_TYPE = U
NORAD_CAT_ID   = 67453
ELEMENT_SET_NO = 999
REV_AT_EPOCH   = 453
BSTAR          = -.23336E-1
MEAN_MOTION_DOT = -.2066437E-1
MEAN_MOTION_DDOT = 0

